{"type": "FeatureCollection", "features": [ {"type": "Feature", "properties": {"norad_id": 30859, "name": "FENGYUN 1C DEB", "group": "fengyun-1c-debris", "lat": -52.0999060239116, "lon": -152.9424797123807, "alt_km": 754.9333362610487, "timestamp": "2025-12-14T11:29:50.339605+00:00", "meta": {"OBJECT_NAME": "FENGYUN 1C DEB", "OBJECT_ID": "1999-025AWV", "EPOCH": "2025-12-13T09:34:07.097664", "MEAN_MOTION": 14.49096664, "ECCENTRICITY": 0.00309861, "INCLINATION": 98.9223, "RA_OF_ASC_NODE": 37.5581, "ARG_OF_PERICENTER": 28.7881, "MEAN_ANOMALY": 331.5013, "EPHEMERIS_TYPE": 0, "CLASSIFICATION_TYPE": "U", "NORAD_CAT_ID": 30859, "ELEMENT_SET_NO": 999, "REV_AT_EPOCH": 97044, "BSTAR": 0.0047754701, "MEAN_MOTION_DOT": 0.00018255, "MEAN_MOTION_DDOT": 0}, "tle": {"line1": "1 30859U 99025AWV 25347.39869326  .00018255  00000+0  47755-2 0  9997", "line2": "2 30859  98.9223  37.5581 0030986  28.7881 331.5013 14.49096664970448"}}, "geometry": {"type": "Point", "coordinates": [-152.9424797123807, -52.0999060239116]}}, {"type": "Feature", "properties": {"norad_id": 30860, "name": "FENGYUN 1C DEB", "group": "fengyun-1c-debris", "lat": -58.4008642471545, "lon": 76.73064214841868, "alt_km": 827.3288625733767, "timestamp": "2025-12-14T11:29:50.339615+00:00", "meta": {"OBJECT_NAME": "FENGYUN 1C DEB", "OBJECT_ID": "1999-025AWW", "EPOCH": "2025-12-13T15:33:47.967840", "MEAN_MOTION": 14.25507444, "ECCENTRICITY": 0.00402236, "INCLINATION": 98.9053, "RA_OF_ASC_NODE": 61.1217, "ARG_OF_PERICENTER": 184.8586, "MEAN_ANOMALY": 175.2208, "EPHEMERIS_TYPE": 0, "CLASSIFICATION_TYPE": "U", "NORAD_CAT_ID": 30860, "ELEMENT_SET_NO": 999, "REV_AT_EPOCH": 96529, "BSTAR": 0.0021002327, "MEAN_MOTION_DOT": 4.964e-05, "MEAN_MOTION_DDOT": 0}, "tle": {"line1": "1 30860U 99025AWW 25347.64847185  .00004964  00000+0  21002-2 0  9995", "line2": "2 30860  98.9053  61.1217 0040223 184.8586 175.2208 14.25507444965294"}}, "geometry": {"type": "Point", "coordinates": [76.73064214841868, -58.4008642471545]}}, {"type": "Feature", "properties": {"norad_id": 30862, "name": "FENGYUN 1C DEB", "group": "fengyun-1c-debris", "lat": -30.919974826850858, "lon": -106.09209326008302, "alt_km": 731.3410878729046, "timestamp": "2025-12-14T11:29:50.339625+00:00", "meta": {"OBJECT_NAME": "FENGYUN 1C DEB", "OBJECT_ID": "1999-025AWY", "EPOCH": "2025-12-12T05:24:33.412608", "MEAN_MOTION": 14.4305654, "ECCENTRICITY": 0.00529585, "INCLINATION": 98.958, "RA_OF_ASC_NODE": 76.9612, "ARG_OF_PERICENTER": 164.8136, "MEAN_ANOMALY": 224.4839, "EPHEMERIS_TYPE": 0, "CLASSIFICATION_TYPE": "U", "NORAD_CAT_ID": 30862, "ELEMENT_SET_NO": 999, "REV_AT_EPOCH": 96712, "BSTAR": 0.0053484242, "MEAN_MOTION_DOT": 0.00018235, "MEAN_MOTION_DDOT": 0}, "tle": {"line1": "1 30862U 99025AWY 25346.22538672  .00018235  00000+0  53484-2 0  9993", "line2": "2 30862  98.9580  76.9612 0052958 164.8136 224.4839 14.43056540967128"}}, "geometry": {"type": "Point", "coordinates": [-106.09209326008302, -30.919974826850858]}}, {"type": "Feature", "properties": {"norad_id": 30863, "name": "FENGYUN 1C DEB", "group": "fengyun-1c-debris", "lat": -57.391921177230095, "lon": -166.31753609979634, "alt_km": 1072.9592156592907, "timestamp": "2025-12-14T11:29:50.339635+00:00", "meta": {"OBJECT_NAME": "FENGYUN 1C DEB", "OBJECT_ID": "1999-025AWZ", "EPOCH": "2025-12-12T19:18:29.005632", "MEAN_MOTION": 12.4051166, "ECCENTRICITY": 0.08787853, "INCLINATION": 99.1228, "RA_OF_ASC_NODE": 177.858, "ARG_OF_PERICENTER": 250.2781, "MEAN_ANOMALY": 128.5224, "EPHEMERIS_TYPE": 0, "CLASSIFICATION_TYPE": "U", "NORAD_CAT_ID": 30863, "ELEMENT_SET_NO": 999, "REV_AT_EPOCH": 59741, "BSTAR": 0.0059104409, "MEAN_MOTION_DOT": 3.087e-05, "MEAN_MOTION_DDOT": 0}, "tle": {"line1": "1 30863U 99025AWZ 25346.80450238  .00003087  00000+0  59104-2 0  9993", "line2": "2 30863  99.1228 177.8580 0878785 250.2781 128.5224 12.40511660597413"}}, "geometry": {"type": "Point", "coordinates": [-166.31753609979634, -57.391921177230095]}}, {"type": "Feature", "properties": {"norad_id": 30867, "name": "FENGYUN 1C DEB", "group": "fengyun-1c-debris", "lat": 20.32573358461153, "lon": -107.79600781885166, "alt_km": 764.5256783622235, "timestamp": "2025-12-14T11:29:50.339645+00:00", "meta": {"OBJECT_NAME": "FENGYUN 1C DEB", "OBJECT_ID": "1999-025AXD", "EPOCH": "2025-12-13T05:50:25.364832", "MEAN_MOTION": 14.28009025, "ECCENTRICITY": 0.00543918, "INCLINATION": 97.8765, "RA_OF_ASC_NODE": 254.0283, "ARG_OF_PERICENTER": 354.0627, "MEAN_ANOMALY": 157.3398, "EPHEMERIS_TYPE": 0, "CLASSIFICATION_TYPE": "U", "NORAD_CAT_ID": 30867, "ELEMENT_SET_NO": 999, "REV_AT_EPOCH": 96544, "BSTAR": 0.0039514678, "MEAN_MOTION_DOT": 9.935e-05, "MEAN_MOTION_DDOT": 0}, "tle": {"line1": "1 30867U 99025AXD 25347.24334913  .00009935  00000+0  39515-2 0  9999", "line2": "2 30867  97.8765 254.0283 0054391 354.0627 157.3398 14.28009025965446"}}, "geometry": {"type": "Point", "coordinates": [-107.79600781885166, 20.32573358461153]}}, {"type": "Feature", "properties": {"norad_id": 30868, "name": "FENGYUN 1C DEB", "group": "fengyun-1c-debris", "lat": 69.35454665539037, "lon": 69.06446824045874, "alt_km": 862.7856049867487, "timestamp": "2025-12-14T11:29:50.339655+00:00", "meta": {"OBJECT_NAME": "FENGYUN 1C DEB", "OBJECT_ID": "1999-025AXE", "EPOCH": "2025-12-12T21:50:24.056160", "MEAN_MOTION": 14.11120343, "ECCENTRICITY": 0.01351602, "INCLINATION": 98.2634, "RA_OF_ASC_NODE": 224.9327, "ARG_OF_PERICENTER": 212.4536, "MEAN_ANOMALY": 211.6895, "EPHEMERIS_TYPE": 0, "CLASSIFICATION_TYPE": "U", "NORAD_CAT_ID": 30868, "ELEMENT_SET_NO": 999, "REV_AT_EPOCH": 96713, "BSTAR": 0.00019808648, "MEAN_MOTION_DOT": 3.49e-06, "MEAN_MOTION_DDOT": 0}, "tle": {"line1": "1 30868U 99025AXE 25346.91000065  .00000349  00000+0  19809-3 0  9996", "line2": "2 30868  98.2634 224.9327 0135160 212.4536 211.6895 14.11120343967135"}}, "geometry": {"type": "Point", "coordinates": [69.06446824045874, 69.35454665539037]}}, {"type": "Feature", "properties": {"norad_id": 30872, "name": "FENGYUN 1C DEB", "group": "fengyun-1c-debris", "lat": 78.77899653323698, "lon": -84.30885807248008, "alt_km": 744.2366444677409, "timestamp": "2025-12-14T11:29:50.339665+00:00", "meta": {"OBJECT_NAME": "FENGYUN 1C DEB", "OBJECT_ID": "1999-025AXJ", "EPOCH": "2025-12-12T02:28:16.743648", "MEAN_MOTION": 14.39419065, "ECCENTRICITY": 0.0040821, "INCLINATION": 99.1932, "RA_OF_ASC_NODE": 38.4261, "ARG_OF_PERICENTER": 30.6274, "MEAN_ANOMALY": 359.5963, "EPHEMERIS_TYPE": 0, "CLASSIFICATION_TYPE": "U", "NORAD_CAT_ID": 30872, "ELEMENT_SET_NO": 999, "REV_AT_EPOCH": 97727, "BSTAR": 0.0013559061, "MEAN_MOTION_DOT": 4.214e-05, "MEAN_MOTION_DDOT": 0}, "tle": {"line1": "1 30872U 99025AXJ 25346.10297157  .00004214  00000+0  13559-2 0  9992", "line2": "2 30872  99.1932  38.4261 0040821  30.6274 359.5963 14.39419065977270"}}, "geometry": {"type": "Point", "coordinates": [-84.30885807248008, 78.77899653323698]}}, {"type": "Feature", "properties": {"norad_id": 30873, "name": "FENGYUN 1C DEB", "group": "fengyun-1c-debris", "lat": -72.09911012004079, "lon": 140.75852307962396, "alt_km": 767.7427161181195, "timestamp": "2025-12-14T11:29:50.339675+00:00", "meta": {"OBJECT_NAME": "FENGYUN 1C DEB", "OBJECT_ID": "1999-025AXK", "EPOCH": "2025-12-13T05:31:42.773088", "MEAN_MOTION": 14.1913869, "ECCENTRICITY": 0.01077521, "INCLINATION": 98.6117, "RA_OF_ASC_NODE": 347.5244, "ARG_OF_PERICENTER": 287.3184, "MEAN_ANOMALY": 71.6228, "EPHEMERIS_TYPE": 0, "CLASSIFICATION_TYPE": "U", "NORAD_CAT_ID": 30873, "ELEMENT_SET_NO": 999, "REV_AT_EPOCH": 97199, "BSTAR": 0.00033753307, "MEAN_MOTION_DOT": 7.04e-06, "MEAN_MOTION_DDOT": 0}, "tle": {"line1": "1 30873U 99025AXK 25347.23035617  .00000704  00000+0  33753-3 0  9998", "line2": "2 30873  98.6117 347.5244 0107752 287.3184  71.6228 14.19138690971992"}}, "geometry": {"type": "Point", "coordinates": [140.75852307962396, -72.09911012004079]}}, {"type": "Feature", "properties": {"norad_id": 30874, "name": "FENGYUN 1C DEB", "group": "fengyun-1c-debris", "lat": 5.3709122643794815, "lon": -160.17629122936748, "alt_km": 851.4396722498868, "timestamp": "2025-12-14T11:29:50.339685+00:00", "meta": {"OBJECT_NAME": "FENGYUN 1C DEB", "OBJECT_ID": "1999-025AXL", "EPOCH": "2025-12-13T14:58:50.262240", "MEAN_MOTION": 14.19651485, "ECCENTRICITY": 0.00419577, "INCLINATION": 98.4904, "RA_OF_ASC_NODE": 18.1993, "ARG_OF_PERICENTER": 38.0493, "MEAN_ANOMALY": 89.5786, "EPHEMERIS_TYPE": 0, "CLASSIFICATION_TYPE": "U", "NORAD_CAT_ID": 30874, "ELEMENT_SET_NO": 999, "REV_AT_EPOCH": 97033, "BSTAR": 0.00060391653, "MEAN_MOTION_DOT": 1.246e-05, "MEAN_MOTION_DDOT": 0}, "tle": {"line1": "1 30874U 99025AXL 25347.62419285  .00001246  00000+0  60392-3 0  9990", "line2": "2 30874  98.4904  18.1993 0041957  38.0493  89.5786 14.19651485970331"}}, "geometry": {"type": "Point", "coordinates": [-160.17629122936748, 5.3709122643794815]}}, {"type": "Feature", "properties": {"norad_id": 30876, "name": "FENGYUN 1C DEB", "group": "fengyun-1c-debris", "lat": 68.51092176130075, "lon": 176.6905234355576, "alt_km": 936.1637578429854, "timestamp": "2025-12-14T11:29:50.339694+00:00", "meta": {"OBJECT_NAME": "FENGYUN 1C DEB", "OBJECT_ID": "1999-025AXN", "EPOCH": "2025-12-13T11:34:06.997152", "MEAN_MOTION": 13.99168568, "ECCENTRICITY": 0.00664066, "INCLINATION": 98.8101, "RA_OF_ASC_NODE": 332.5326, "ARG_OF_PERICENTER": 275.4482, "MEAN_ANOMALY": 215.135, "EPHEMERIS_TYPE": 0, "CLASSIFICATION_TYPE": "U", "NORAD_CAT_ID": 30876, "ELEMENT_SET_NO": 999, "REV_AT_EPOCH": 95720, "BSTAR": 0.00058558551, "MEAN_MOTION_DOT": 8.22e-06, "MEAN_MOTION_DDOT": 0}, "tle": {"line1": "1 30876U 99025AXN 25347.48202543  .00000822  00000+0  58559-3 0  9994", "line2": "2 30876  98.8101 332.5326 0066406 275.4482 215.1350 13.99168568957207"}}, "geometry": {"type": "Point", "coordinates": [176.6905234355576, 68.51092176130075]}}]}